FLOCK 3P-62             
1 42036U 17008CS  17308.85875421  .00004394  00000-0  18644-3 0  9996
2 42036  97.4805   9.8902 0009647  86.5785 273.6555 15.23588190 39112
FLOCK 3P-38             
1 42037U 17008CT  17309.46183219  .00002849  00000-0  12245-3 0  9996
2 42037  97.4802  10.4592 0009345  83.6955 276.5346 15.23458205 39983
FLOCK 3P-39             
1 42038U 17008CU  17309.13175447  .00002352  00000-0  10161-3 0  9999
2 42038  97.4798  10.1225 0009592  84.4733 275.7598 15.23464116 39882
FLOCK 3P-15             
1 42039U 17008CV  17309.46463952  .00003787  00000-0  16187-3 0  9994
2 42039  97.4801  10.4548 0009481  83.6195 276.6121 15.23428797 39213
FLOCK 3P-13             
1 42040U 17008CW  17309.85296391  .00002022  00000-0  87758-4 0  9994
2 42040  97.4802  10.8611 0009289  84.0658 276.1637 15.23469859 39262
FLOCK 3P-55             
1 42041U 17008CX  17308.91156173  .00002134  00000-0  92572-4 0  9998
2 42041  97.4804   9.9695 0009188  89.4481 270.7808 15.23427803 39967
FLOCK 3P-56             
1 42042U 17008CY  17309.81473359  .00003518  00000-0  14877-3 0  9995
2 42042  97.4798  10.8962 0009049  86.3309 273.8962 15.23849440 39891
FLOCK 3P-81             
1 42043U 17008CZ  17309.87943692  .00002057  00000-0  89315-4 0  9991
2 42043  97.4825  10.9159 0009789  68.2099 292.0178 15.23437660 39280
FLOCK 3P-87             
1 42044U 17008DA  17309.29729102  .00002633  00000-0  11351-3 0  9990
2 42044  97.4823  10.3013 0009951  67.2092 293.0195 15.23421654 39348
FLOCK 3P-29             
1 42045U 17008DB  17309.10182354  .00001904  00000-0  82954-4 0  9991
2 42045  97.4806  10.0385 0009578  65.1706 295.0526 15.23415138 39163
FLOCK 3P-82             
1 42046U 17008DC  17309.82443912  .00003403  00000-0  14531-3 0  9992
2 42046  97.4822  10.8299 0009858  66.3221 293.9049 15.23536362 39328
FLOCK 3P-78             
1 42047U 17008DD  17308.83704837  .00003048  00000-0  13096-3 0  9999
2 42047  97.4826   9.8532 0009875  68.4486 291.7802 15.23407751 39104
FLOCK 3P-74             
1 42048U 17008DE  17309.83063967  .00002243  00000-0  97138-4 0  9999
2 42048  97.4826  10.8331 0010148  65.7811 294.4485 15.23419406 39254
FLOCK 3P-31             
1 42049U 17008DF  17309.76665795  .00002406  00000-0  10410-3 0  9997
2 42049  97.4803  10.6854 0009678  64.5564 295.6673 15.23386206 38708
FLOCK 3P-83             
1 42050U 17008DG  17308.84789820  .00001809  00000-0  78986-4 0  9992
2 42050  97.4825   9.8356 0010072  69.5897 290.6421 15.23397761 39834
FLOCK 3P-72             
1 42051U 17008DH  17309.15556277  .00001649  00000-0  72202-4 0  9993
2 42051  97.4830  10.2068 0009540  68.2062 292.0189 15.23423462 37478
LEMUR-2-REDFERN-GOES    
1 42059U 98067LA  17308.84732888  .00026037  00000-0  27722-3 0  9998
2 42059  51.6384  48.7686 0005906  94.7038 265.4632 15.63796497 37970
LEMUR-2-TRUTNA          
1 42067U 98067LC  17309.52528311  .00051853  00000-0  39606-3 0  9995
2 42067  51.6371  40.5208 0003884  73.4249 286.7175 15.71648083 37970
LEMUR-2-AUSTINTACIOUS   
1 42068U 98067LD  17309.84543196  .00025773  00000-0  25577-3 0  9993
2 42068  51.6385  42.6869 0005337  86.4531 273.7074 15.65589052 38074
LEMUR-2-TRUTNAHD        
1 42069U 98067LE  17309.70572557  .00022525  00000-0  23460-3 0  9993
2 42069  51.6396  44.0211 0005129  93.2336 266.9246 15.64455906 38098
HAVELSAT                
1 42700U 98067LH  17309.71213502  .00019968  00000-0  23802-3 0  9995
2 42700  51.6398  48.5553 0004572 127.3412 232.7999 15.61061407 27006
SOMP 2                  
1 42701U 98067LJ  17309.80075590  .00020386  00000-0  24714-3 0  9998
2 42701  51.6395  48.3991 0004582 127.7696 232.3713 15.60603754 27003
COLUMBIA                
1 42702U 98067LK  17309.81021363  .00064653  00000-0  54616-3 0  9998
2 42702  51.6370  44.6913 0002039  73.2114 286.9107 15.69141407 26984
SGSAT                   
1 42703U 98067LL  17309.66894319  .00039176  00000-0  38197-3 0  9999
2 42703  51.6372  46.7472 0002654  16.9399 343.1684 15.65818568 26938
CXBN-2                  
1 42704U 98067LM  17309.54979222  .00020805  00000-0  25145-3 0  9992
2 42704  51.6402  49.7245 0001918  48.6193 311.4965 15.60676261 26892
ICECUBE                 
1 42705U 98067LN  17309.74812487  .00028140  00000-0  31782-3 0  9998
2 42705  51.6424  48.0669 0002412  53.6220 306.4997 15.62248955 26993
PHOENIX                 
1 42706U 98067LP  17309.72529239  .00016479  00000-0  19973-3 0  9997
2 42706  51.6396  48.6473 0001054  59.1016 301.0081 15.60783589 26918
X-CUBESAT               
1 42707U 98067LQ  17309.72116799  .00019865  00000-0  23744-3 0  9994
2 42707  51.6384  48.6093 0001073  54.8668 305.2426 15.61000165 26901
QBEE50-LTU-OC           
1 42708U 98067LR  17309.79227068  .00018498  00000-0  22301-3 0  9993
2 42708  51.6386  48.3346 0001099  58.0949 302.0151 15.60829440 26878
ALTAIR PATHFINDER       
1 42711U 98067LS  17309.71295891  .00012402  00000-0  16445-3 0  9999
2 42711  51.6393  50.0557 0004231  60.5511 299.5904 15.58672909 26552
SHARC                   
1 42712U 98067LT  17309.79071001  .00009754  00000-0  13387-3 0  9991
2 42712  51.6411  49.8371 0002411  69.0879 291.0372 15.58042833 26804
ZA-AEROSAT              
1 42713U 98067LU  17309.72033104  .00015946  00000-0  20118-3 0  9997
2 42713  51.6397  49.3612 0002366  43.2672 316.8507 15.59753817 26566
LINK                    
1 42714U 98067LV  17309.70530269  .00027039  00000-0  30660-3 0  9999
2 42714  51.6378  48.4985 0002386  30.3633 329.7499 15.62168878 26682
CSUNSAT 1               
1 42715U 98067LW  17309.72108644  .00016397  00000-0  20512-3 0  9990
2 42715  51.6401  49.3634 0004334  46.9979 313.1377 15.59950136 26563
UPSAT                   
1 42716U 98067LX  17309.69463626  .00024078  00000-0  27732-3 0  9997
2 42716  51.6395  48.4390 0002727 127.1224 233.0019 15.61834406 26707
SPACECUBE               
1 42717U 98067LY  17309.74309008  .00020645  00000-0  24933-3 0  9993
2 42717  51.6394  48.7610 0003016 127.9771 232.1496 15.60700292 25940
HOOPOE                  
1 42718U 98067LZ  17309.71868977  .00022511  00000-0  26529-3 0  9993
2 42718  51.6394  48.5984 0002862 124.7057 235.4207 15.61281500 25946
CHALLENGER              
1 42721U 98067MA  17309.86878470  .00031046  00000-0  33847-3 0  9996
2 42721  51.6383  47.3380 0004940 102.2284 257.9264 15.63095072 25678
NJUST-1                 
1 42722U 98067MB  17309.87971173  .00016557  00000-0  21081-3 0  9999
2 42722  51.6398  48.9210 0006291 111.5285 248.6379 15.59464493 25653
UNSW-ECO                
1 42723U 98067MC  17309.68785704  .00022822  00000-0  26997-3 0  9995
2 42723  51.6401  49.1445 0005472 106.5011 253.6584 15.61164276 25612
DUTHSAT                 
1 42724U 98067MD  17309.88768699  .00030898  00000-0  34152-3 0  9996
2 42724  51.6391  47.4741 0004187 104.9593 255.1865 15.62748529 25574
LILACSAT-1              
1 42725U 98067ME  17309.80398980  .00019143  00000-0  23775-3 0  9990
2 42725  51.6397  49.1688 0005042 111.4513 248.7019 15.60012451 25548
NSIGHT-1                
1 42726U 98067MF  17309.72080176  .00012987  00000-0  17808-3 0  9996
2 42726  51.6421  50.6115 0006570 116.1096   3.8834 15.57710312 25524
SNUSAT-1                
1 42727U 98067MG  17309.73878519  .00017775  00000-0  22242-3 0  9992
2 42727  51.6385  49.4695 0007010  72.0663 288.1093 15.59861474 25504
QBITO                   
1 42728U 98067MH  17309.70727731  .00020712  00000-0  25156-3 0  9991
2 42728  51.6410  49.2848 0002437 113.1160 247.0090 15.60550554 25348
AALTO-2                 
1 42729U 98067MJ  17309.70657701  .00020649  00000-0  25030-3 0  9991
2 42729  51.6399  49.2708 0002361 111.4807 248.6438 15.60604603 25354
SUSAT                   
1 42730U 98067MK  17309.71910698  .00019034  00000-0  23388-3 0  9991
2 42730  51.6395  49.3503 0002578 109.2765 250.8507 15.60305945 25342
I-INSPIRE II            
1 42731U 98067ML  17309.86769798  .00022331  00000-0  26147-3 0  9991
2 42731  51.6385  48.0786 0006413  54.4617 305.6974 15.61439495 25425
POLYITAN-2-SAU          
1 42732U 98067MM  17309.82765293  .00021583  00000-0  25977-3 0  9992
2 42732  51.6391  48.5638 0006490  55.2353 304.9251 15.60742710 25410
SNUSAT-1B               
1 42733U 98067MN  17309.71917589  .00019506  00000-0  23965-3 0  9995
2 42733  51.6394  49.3425 0006581  58.6620 301.5017 15.60275126 25394
EXALTA-1                
1 42734U 98067MP  17309.80823451  .00025121  00000-0  29443-3 0  9997
2 42734  51.6386  48.4338 0007294  81.2282 278.9537 15.61331368 25360
AOXIANG-1               
1 42735U 98067MQ  17309.80969093  .00016914  00000-0  21426-3 0  9994
2 42735  51.6392  49.1992 0006854 108.1655 252.0085 15.59578231 26772
BEEAGLESAT              
1 42736U 98067MR  17309.73412664  .00016782  00000-0  20976-3 0  9996
2 42736  51.6389  49.4449 0006597 105.1982 254.9741 15.59941790 25451
ATLANTIS                
1 42737U 98067MS  17309.73387492  .00052312  00000-0  48034-3 0  9991
2 42737  51.6363  46.4212 0004204  77.3971 282.7495 15.67177797 25384
LEMUR-2-ANGELA          
1 42752U 17019B   17309.81294964  .00001940  00000-0  82393-4 0  9994
2 42752  51.6407  81.7620 0011220 126.7426 233.4586 15.28163315 22946
LEMUR-2-JENNYBARNA      
1 42753U 17019C   17309.80071910  .00002739  00000-0  11014-3 0  9996
2 42753  51.6393  81.6846 0011213 127.8811 232.3184 15.28428490 22885
LEMUR-2-ROBMOORE        
1 42754U 17019D   17309.82011680  .00002286  00000-0  94989-4 0  9997
2 42754  51.6415  81.8060 0011106 129.4215 230.7749 15.28089619 22928
LEMUR-2-SPIROVISION     
1 42755U 17019E   17309.81006453  .00003044  00000-0  12129-3 0  9997
2 42755  51.6401  81.7401 0011145 129.5770 230.6196 15.28343051 22818
UCLSAT                  
1 42765U 17036A   17309.41092357  .00002042  00000-0  94525-4 0  9999
2 42765  97.4336   7.5367 0013232 135.5269 224.7032 15.21184202 20680
